0 METEOR 2-12 DEB
1 28603U 85013C   13279.07610710  .00001740  00000-0  13145-2 0  5321
2 28603 082.5282 050.0430 0032684 298.7614 061.0713 13.93354507479772
0 METEOR 2-12 DEB
1 28603U 85013C   13280.08143579  .00001763  00000-0  13325-2 0  5334
2 28603 082.5289 049.2305 0031878 295.2209 064.5846 13.93358693479917
0 METEOR 2-12 DEB
1 28603U 85013C   13282.66657367  .00001789  00000-0  13511-2 0  5341
2 28603 082.5263 047.1352 0035134 290.2399 069.5287 13.93368823480273
0 METEOR 2-12 DEB
1 28603U 85013C   13283.67188723  .00003553  00000-0  27065-2 0  5360
2 28603 082.5291 046.3248 0032384 284.9820 074.8236 13.93380361480412
0 METEOR 2-12 DEB
1 28603U 85013C   13284.03093832  .00001846  00000-0  13944-2 0  5350
2 28603 082.5290 046.0371 0033525 284.4620 075.3314 13.93375660480460
0 METEOR 2-12 DEB
1 28603U 85013C   13287.04688396  .00001930  00000-0  14589-2 0  5371
2 28603 082.5276 043.5988 0032000 275.2430 084.5394 13.93389423480882
0 METEOR 2-12 DEB
1 28603U 85013C   13289.05750257  .00001996  00000-0  15095-2 0  5386
2 28603 082.5320 041.9764 0030052 263.1317 096.6994 13.93399132481161
0 METEOR 2-12 DEB
1 28603U 85013C   13290.99629609  .00002170  00000-0  16409-2 0  5393
2 28603 082.5267 040.4057 0032990 266.4712 093.3631 13.93412056481431
0 METEOR 2-12 DEB
1 28603U 85013C   13293.00686293  .00002225  00000-0  16817-2 0  5406
2 28603 082.5264 038.7782 0033347 261.1298 098.6337 13.93422757481712
